ORBCOMM FM24            
1 25478U 98053D   25211.86231094  .00001019  00000+0  37914-3 0  9992
2 25478  45.0087  62.0008 0002777  82.6766 277.4398 14.38181262403739
ORBCOMM FM25            
1 25479U 98053E   25211.90397139  .00001073  00000+0  39687-3 0  9990
2 25479  45.0076  60.0798 0005016  98.9070 261.2346 14.38152827404032
ORBCOMM FM26            
1 25480U 98053F   25211.94421518  .00000768  00000+0  30308-3 0  9996
2 25480  45.0075  56.6633 0006620 117.8490 242.3029 14.37199834403946
ORBCOMM FM27            
1 25481U 98053G   25211.89073357  .00001027  00000+0  38161-3 0  9999
2 25481  45.0060  60.3296 0001327  83.9477 276.1523 14.38183472403963
ORBCOMM FM28            
1 25482U 98053H   25211.71439753  .00000932  00000+0  34937-3 0  9998
2 25482  45.0070 358.6047 0005629 161.7762 198.3289 14.38362276404622
ORBCOMM FM30            
1 25980U 99065A   25211.79015712  .00000526  00000+0  22171-3 0  9994
2 25980  45.0302 243.3184 0008546 237.6375 122.3647 14.37364122340725
ORBCOMM FM31            
1 25981U 99065B   25211.76529494  .00000530  00000+0  22335-3 0  9996
2 25981  45.0212 236.9144 0006284 259.1027 100.9115 14.37300943340273
ORBCOMM FM32            
1 25982U 99065C   25211.84077506  .00000610  00000+0  25435-3 0  9991
2 25982  45.0146 253.4300 0008602 251.3596 108.6318 14.36348068340874
